[{"OBJECT_NAME":"STARLINK-30285","OBJECT_ID":"2023-141A","EPOCH":"2026-03-09T20:37:38.893152","MEAN_MOTION":15.30171146,"ECCENTRICITY":0.0001086,"INCLINATION":53.1603,"RA_OF_ASC_NODE":283.3513,"ARG_OF_PERICENTER":75.3285,"MEAN_ANOMALY":284.7836,"EPHEMERIS_TYPE":0,"CLASSIFICATION_TYPE":"U","NORAD_CAT_ID":57840,"ELEMENT_SET_NO":999,"REV_AT_EPOCH":14035,"BSTAR":-4.8463922e-5,"MEAN_MOTION_DOT":-1.793e-5,"MEAN_MOTION_DDOT":0},{"OBJECT_NAME":"CZ-6A DEB","OBJECT_ID":"2022-151DE","EPOCH":"2026-03-09T09:45:43.657920","MEAN_MOTION":15.34292219,"ECCENTRICITY":0.00393756,"INCLINATION":99.0022,"RA_OF_ASC_NODE":218.5596,"ARG_OF_PERICENTER":192.6197,"MEAN_ANOMALY":167.4059,"EPHEMERIS_TYPE":0,"CLASSIFICATION_TYPE":"U","NORAD_CAT_ID":54359,"ELEMENT_SET_NO":999,"REV_AT_EPOCH":10560,"BSTAR":0.0065240017,"MEAN_MOTION_DOT":0.00228186,"MEAN_MOTION_DDOT":0}]
